[{"OBJECT_NAME":"YAOGAN-7","OBJECT_ID":"2009-069A","EPOCH":"2026-03-03T16:14:07.192032","MEAN_MOTION":14.77880563,"ECCENTRICITY":0.0025222,"INCLINATION":98.0222,"RA_OF_ASC_NODE":309.1165,"ARG_OF_PERICENTER":22.4902,"MEAN_ANOMALY":337.7408,"EPHEMERIS_TYPE":0,"CLASSIFICATION_TYPE":"U","NORAD_CAT_ID":36110,"ELEMENT_SET_NO":999,"REV_AT_EPOCH":87404,"BSTAR":0.00014675,"MEAN_MOTION_DOT":1.008e-5,"MEAN_MOTION_DDOT":0},{"OBJECT_NAME":"XIWANG-1 (HOPE-1)","OBJECT_ID":"2009-072B","EPOCH":"2026-03-03T19:59:34.649088","MEAN_MOTION":13.16437439,"ECCENTRICITY":0.0008041,"INCLINATION":100.3903,"RA_OF_ASC_NODE":18.4066,"ARG_OF_PERICENTER":111.9992,"MEAN_ANOMALY":248.1975,"EPHEMERIS_TYPE":0,"CLASSIFICATION_TYPE":"U","NORAD_CAT_ID":36122,"ELEMENT_SET_NO":999,"REV_AT_EPOCH":77914,"BSTAR":0.00096812,"MEAN_MOTION_DOT":3.25e-6,"MEAN_MOTION_DDOT":0},{"OBJECT_NAME":"RADUGA-1M 2","OBJECT_ID":"2010-002A","EPOCH":"2026-03-03T19:36:28.967616","MEAN_MOTION":0.98964008,"ECCENTRICITY":0.0008544,"INCLINATION":3.3464,"RA_OF_ASC_NODE":80.1824,"ARG_OF_PERICENTER":248.8132,"MEAN_ANOMALY":210.3885,"EPHEMERIS_TYPE":0,"CLASSIFICATION_TYPE":"U","NORAD_CAT_ID":36358,"ELEMENT_SET_NO":999,"REV_AT_EPOCH":4898,"BSTAR":0,"MEAN_MOTION_DOT":1.1e-7,"MEAN_MOTION_DDOT":0},{"OBJECT_NAME":"COSMOS 2463","OBJECT_ID":"2010-017A","EPOCH":"2026-03-03T17:06:13.368672","MEAN_MOTION":13.71657286,"ECCENTRICITY":0.0037402,"INCLINATION":82.9639,"RA_OF_ASC_NODE":327.2215,"ARG_OF_PERICENTER":63.6072,"MEAN_ANOMALY":4.4283,"EPHEMERIS_TYPE":0,"CLASSIFICATION_TYPE":"U","NORAD_CAT_ID":36519,"ELEMENT_SET_NO":999,"REV_AT_EPOCH":79347,"BSTAR":6.4597e-5,"MEAN_MOTION_DOT":7.4e-7,"MEAN_MOTION_DDOT":0},{"OBJECT_NAME":"CARTOSAT-2B","OBJECT_ID":"2010-035A","EPOCH":"2026-03-03T20:12:13.419936","MEAN_MOTION":14.78665187,"ECCENTRICITY":0.0011467,"INCLINATION":97.8562,"RA_OF_ASC_NODE":114.2511,"ARG_OF_PERICENTER":167.3223,"MEAN_ANOMALY":192.8279,"EPHEMERIS_TYPE":0,"CLASSIFICATION_TYPE":"U","NORAD_CAT_ID":36795,"ELEMENT_SET_NO":999,"REV_AT_EPOCH":84428,"BSTAR":9.516e-5,"MEAN_MOTION_DOT":6.47e-6,"MEAN_MOTION_DDOT":0},{"OBJECT_NAME":"AISSAT 1","OBJECT_ID":"2010-035C","EPOCH":"2026-03-03T16:14:17.013984","MEAN_MOTION":14.96852953,"ECCENTRICITY":0.0010412,"INCLINATION":98.1045,"RA_OF_ASC_NODE":318.1777,"ARG_OF_PERICENTER":51.273,"MEAN_ANOMALY":308.942,"EPHEMERIS_TYPE":0,"CLASSIFICATION_TYPE":"U","NORAD_CAT_ID":36797,"ELEMENT_SET_NO":999,"REV_AT_EPOCH":84843,"BSTAR":0.00026978,"MEAN_MOTION_DOT":3.033e-5,"MEAN_MOTION_DDOT":0},{"OBJECT_NAME":"TISAT 1","OBJECT_ID":"2010-035E","EPOCH":"2026-03-03T17:31:23.377152","MEAN_MOTION":15.27276602,"ECCENTRICITY":3.14e-5,"INCLINATION":98.0649,"RA_OF_ASC_NODE":0.3379,"ARG_OF_PERICENTER":164.8855,"MEAN_ANOMALY":195.2392,"EPHEMERIS_TYPE":0,"CLASSIFICATION_TYPE":"U","NORAD_CAT_ID":36799,"ELEMENT_SET_NO":999,"REV_AT_EPOCH":85158,"BSTAR":0.0011314,"MEAN_MOTION_DOT":0.00030246,"MEAN_MOTION_DDOT":0},{"OBJECT_NAME":"YAOGAN-10","OBJECT_ID":"2010-038A","EPOCH":"2026-03-03T20:33:36.252576","MEAN_MOTION":14.84986054,"ECCENTRICITY":0.0001722,"INCLINATION":97.9085,"RA_OF_ASC_NODE":87.073,"ARG_OF_PERICENTER":90.1401,"MEAN_ANOMALY":34.1126,"EPHEMERIS_TYPE":0,"CLASSIFICATION_TYPE":"U","NORAD_CAT_ID":36834,"ELEMENT_SET_NO":999,"REV_AT_EPOCH":84157,"BSTAR":0.00030314,"MEAN_MOTION_DOT":2.531e-5,"MEAN_MOTION_DDOT":0},{"OBJECT_NAME":"SHIJIAN-6 04B (SJ-6 04B)","OBJECT_ID":"2010-051B","EPOCH":"2026-03-03T20:03:47.127168","MEAN_MOTION":14.99102079,"ECCENTRICITY":0.0008844,"INCLINATION":97.8744,"RA_OF_ASC_NODE":67.1629,"ARG_OF_PERICENTER":318.0036,"MEAN_ANOMALY":42.0508,"EPHEMERIS_TYPE":0,"CLASSIFICATION_TYPE":"U","NORAD_CAT_ID":37180,"ELEMENT_SET_NO":999,"REV_AT_EPOCH":83989,"BSTAR":0.00015798,"MEAN_MOTION_DOT":1.859e-5,"MEAN_MOTION_DDOT":0},{"OBJECT_NAME":"FENGYUN 3B","OBJECT_ID":"2010-059A","EPOCH":"2026-03-03T20:54:05.157792","MEAN_MOTION":14.14814297,"ECCENTRICITY":0.0022977,"INCLINATION":98.978,"RA_OF_ASC_NODE":108.3718,"ARG_OF_PERICENTER":123.8496,"MEAN_ANOMALY":345.7701,"EPHEMERIS_TYPE":0,"CLASSIFICATION_TYPE":"U","NORAD_CAT_ID":37214,"ELEMENT_SET_NO":999,"REV_AT_EPOCH":79253,"BSTAR":-7.6488e-5,"MEAN_MOTION_DOT":-1.93e-6,"MEAN_MOTION_DDOT":0},{"OBJECT_NAME":"COSMO-SKYMED 4","OBJECT_ID":"2010-060A","EPOCH":"2026-03-03T20:34:29.085312","MEAN_MOTION":14.82152513,"ECCENTRICITY":0.0001356,"INCLINATION":97.8851,"RA_OF_ASC_NODE":247.9781,"ARG_OF_PERICENTER":84.1485,"MEAN_ANOMALY":275.9883,"EPHEMERIS_TYPE":0,"CLASSIFICATION_TYPE":"U","NORAD_CAT_ID":37216,"ELEMENT_SET_NO":999,"REV_AT_EPOCH":82896,"BSTAR":9.5848e-5,"MEAN_MOTION_DOT":7.11e-6,"MEAN_MOTION_DDOT":0},{"OBJECT_NAME":"O/OREOS (USA 219)","OBJECT_ID":"2010-062C","EPOCH":"2026-03-03T18:28:02.137152","MEAN_MOTION":14.93242441,"ECCENTRICITY":0.0016922,"INCLINATION":71.9725,"RA_OF_ASC_NODE":319.0425,"ARG_OF_PERICENTER":266.6076,"MEAN_ANOMALY":93.3159,"EPHEMERIS_TYPE":0,"CLASSIFICATION_TYPE":"U","NORAD_CAT_ID":37224,"ELEMENT_SET_NO":999,"REV_AT_EPOCH":10090,"BSTAR":0.00033093,"MEAN_MOTION_DOT":3.411e-5,"MEAN_MOTION_DDOT":0},{"OBJECT_NAME":"ELEKTRO-L 1 (GOMS 2)","OBJECT_ID":"2011-001A","EPOCH":"2026-03-03T10:19:17.868288","MEAN_MOTION":1.00174622,"ECCENTRICITY":0.00032317,"INCLINATION":9.447,"RA_OF_ASC_NODE":55.5666,"ARG_OF_PERICENTER":9.9955,"MEAN_ANOMALY":180.9907,"EPHEMERIS_TYPE":0,"CLASSIFICATION_TYPE":"U","NORAD_CAT_ID":37344,"ELEMENT_SET_NO":999,"REV_AT_EPOCH":5542,"BSTAR":0,"MEAN_MOTION_DOT":-2.75e-6,"MEAN_MOTION_DDOT":0},{"OBJECT_NAME":"RESOURCESAT-2","OBJECT_ID":"2011-015A","EPOCH":"2026-03-03T17:30:00.839232","MEAN_MOTION":14.21490377,"ECCENTRICITY":0.00062,"INCLINATION":98.7733,"RA_OF_ASC_NODE":130.8539,"ARG_OF_PERICENTER":154.4165,"MEAN_ANOMALY":205.732,"EPHEMERIS_TYPE":0,"CLASSIFICATION_TYPE":"U","NORAD_CAT_ID":37387,"ELEMENT_SET_NO":999,"REV_AT_EPOCH":77119,"BSTAR":-7.5399e-5,"MEAN_MOTION_DOT":-2.09e-6,"MEAN_MOTION_DDOT":0},{"OBJECT_NAME":"YOUTHSAT","OBJECT_ID":"2011-015B","EPOCH":"2026-03-03T12:52:35.594112","MEAN_MOTION":14.25577967,"ECCENTRICITY":0.00134,"INCLINATION":98.3583,"RA_OF_ASC_NODE":41.4147,"ARG_OF_PERICENTER":294.6153,"MEAN_ANOMALY":176.3474,"EPHEMERIS_TYPE":0,"CLASSIFICATION_TYPE":"U","NORAD_CAT_ID":37388,"ELEMENT_SET_NO":999,"REV_AT_EPOCH":77258,"BSTAR":0.00015437,"MEAN_MOTION_DOT":3.24e-6,"MEAN_MOTION_DDOT":0},{"OBJECT_NAME":"APRIZESAT 6","OBJECT_ID":"2011-044F","EPOCH":"2026-03-03T17:19:16.805856","MEAN_MOTION":14.76736881,"ECCENTRICITY":0.0044496,"INCLINATION":98.2423,"RA_OF_ASC_NODE":331.0508,"ARG_OF_PERICENTER":64.095,"MEAN_ANOMALY":350.0567,"EPHEMERIS_TYPE":0,"CLASSIFICATION_TYPE":"U","NORAD_CAT_ID":37793,"ELEMENT_SET_NO":999,"REV_AT_EPOCH":78158,"BSTAR":0.00018576,"MEAN_MOTION_DOT":1.266e-5,"MEAN_MOTION_DDOT":0},{"OBJECT_NAME":"JUGNU","OBJECT_ID":"2011-058B","EPOCH":"2026-03-03T17:11:44.527776","MEAN_MOTION":14.13737595,"ECCENTRICITY":0.0018654,"INCLINATION":19.9595,"RA_OF_ASC_NODE":229.1867,"ARG_OF_PERICENTER":351.7524,"MEAN_ANOMALY":111.4447,"EPHEMERIS_TYPE":0,"CLASSIFICATION_TYPE":"U","NORAD_CAT_ID":37839,"ELEMENT_SET_NO":999,"REV_AT_EPOCH":74408,"BSTAR":0.00013477,"MEAN_MOTION_DOT":5.25e-6,"MEAN_MOTION_DDOT":0}]
