YAOGAN-7                
1 36110U 09069A   26062.67647213  .00001008  00000+0  14675-3 0  9991
2 36110  98.0222 309.1165 0025222  22.4902 337.7408 14.77880563874047
XIWANG-1 (HOPE-1)       
1 36122U 09072B   26062.83303992  .00000325  00000+0  96812-3 0  9993
2 36122 100.3903  18.4066 0008041 111.9992 248.1975 13.16437439779147
RADUGA-1M 2             
1 36358U 10002A   26062.81700194  .00000011  00000+0  00000+0 0  9994
2 36358   3.3464  80.1824 0008544 248.8132 210.3885  0.98964008 48989
COSMOS 2463             
1 36519U 10017A   26062.71265473  .00000074  00000+0  64597-4 0  9999
2 36519  82.9639 327.2215 0037402  63.6072   4.4283 13.71657286793472
CARTOSAT-2B             
1 36795U 10035A   26062.84182199  .00000647  00000+0  95160-4 0  9998
2 36795  97.8562 114.2511 0011467 167.3223 192.8279 14.78665187844284
AISSAT 1                
1 36797U 10035C   26062.67658581  .00003033  00000+0  26978-3 0  9996
2 36797  98.1045 318.1777 0010412  51.2730 308.9420 14.96852953848436
TISAT 1                 
1 36799U 10035E   26062.73013168  .00030246  00000+0  11314-2 0  9994
2 36799  98.0649   0.3379 0000314 164.8855 195.2392 15.27276602851585
YAOGAN-10               
1 36834U 10038A   26062.85666959  .00002531  00000+0  30314-3 0  9990
2 36834  97.9085  87.0730 0001722  90.1401  34.1126 14.84986054841577
SHIJIAN-6 04B (SJ-6 04B)
1 37180U 10051B   26062.83596212  .00001859  00000+0  15798-3 0  9993
2 37180  97.8744  67.1629 0008844 318.0036  42.0508 14.99102079839894
FENGYUN 3B              
1 37214U 10059A   26062.87089303 -.00000193  00000+0 -76488-4 0  9997
2 37214  98.9780 108.3718 0022977 123.8496 345.7701 14.14814297792532
COSMO-SKYMED 4          
1 37216U 10060A   26062.85728108  .00000711  00000+0  95848-4 0  9997
2 37216  97.8851 247.9781 0001356  84.1485 275.9883 14.82152513828969
O/OREOS (USA 219)       
1 37224U 10062C   26062.76946918  .00003411  00000+0  33093-3 0  9992
2 37224  71.9725 319.0425 0016922 266.6076  93.3159 14.93242441100902
ELEKTRO-L 1 (GOMS 2)    
1 37344U 11001A   26062.43006792 -.00000275  00000+0  00000+0 0  9994
2 37344   9.4470  55.5666 0003231   9.9955 180.9907  1.00174622 55429
RESOURCESAT-2           
1 37387U 11015A   26062.72917638 -.00000209  00000+0 -75399-4 0  9994
2 37387  98.7733 130.8539 0006200 154.4165 205.7320 14.21490377771192
YOUTHSAT                
1 37388U 11015B   26062.53652308  .00000324  00000+0  15437-3 0  9996
2 37388  98.3583  41.4147 0013400 294.6153 176.3474 14.25577967772580
APRIZESAT 6             
1 37793U 11044F   26062.72172229  .00001266  00000+0  18576-3 0  9991
2 37793  98.2423 331.0508 0044496  64.0950 350.0567 14.76736881781586
JUGNU                   
1 37839U 11058B   26062.71648759  .00000525  00000+0  13477-3 0  9994
2 37839  19.9595 229.1867 0018654 351.7524 111.4447 14.13737595744086
